ADRAS-J                 
1 58992U 24034A   24192.68384276  .00004110  00000+0  38161-3 0  9995
2 58992  98.2137 166.7734 0042498 334.3864  25.5249 14.94333499 21376
